[{"OBJECT_NAME":"INTELSAT 28 (IS-28)","OBJECT_ID":"2011-016A","EPOCH":"2026-04-04T05:19:38.595936","MEAN_MOTION":1.00272088,"ECCENTRICITY":0.00045213,"INCLINATION":1.6152,"RA_OF_ASC_NODE":83.5187,"ARG_OF_PERICENTER":296.7697,"MEAN_ANOMALY":220.4564,"EPHEMERIS_TYPE":0,"CLASSIFICATION_TYPE":"U","NORAD_CAT_ID":37392,"ELEMENT_SET_NO":999,"REV_AT_EPOCH":5254,"BSTAR":0,"MEAN_MOTION_DOT":-2.25e-6,"MEAN_MOTION_DDOT":0},{"OBJECT_NAME":"YAHSAT 1A","OBJECT_ID":"2011-016B","EPOCH":"2026-04-04T02:46:07.066848","MEAN_MOTION":1.00269865,"ECCENTRICITY":0.000288,"INCLINATION":0.006,"RA_OF_ASC_NODE":216.4117,"ARG_OF_PERICENTER":170.3857,"MEAN_ANOMALY":259.6518,"EPHEMERIS_TYPE":0,"CLASSIFICATION_TYPE":"U","NORAD_CAT_ID":37393,"ELEMENT_SET_NO":999,"REV_AT_EPOCH":4166,"BSTAR":0,"MEAN_MOTION_DOT":1.01e-6,"MEAN_MOTION_DDOT":0},{"OBJECT_NAME":"SBIRS GEO-1 (USA 230)","OBJECT_ID":"2011-019A","EPOCH":"2026-04-04T05:50:38.728320","MEAN_MOTION":1.00272357,"ECCENTRICITY":0.00022327,"INCLINATION":4.3745,"RA_OF_ASC_NODE":53.1086,"ARG_OF_PERICENTER":317.2507,"MEAN_ANOMALY":321.6648,"EPHEMERIS_TYPE":0,"CLASSIFICATION_TYPE":"U","NORAD_CAT_ID":37481,"ELEMENT_SET_NO":999,"REV_AT_EPOCH":5465,"BSTAR":0,"MEAN_MOTION_DOT":1.01e-6,"MEAN_MOTION_DDOT":0},{"OBJECT_NAME":"TELSTAR 14R","OBJECT_ID":"2011-021A","EPOCH":"2026-04-04T05:38:28.035744","MEAN_MOTION":1.00268319,"ECCENTRICITY":0.00024416,"INCLINATION":0.0189,"RA_OF_ASC_NODE":217.3527,"ARG_OF_PERICENTER":163.4455,"MEAN_ANOMALY":193.366,"EPHEMERIS_TYPE":0,"CLASSIFICATION_TYPE":"U","NORAD_CAT_ID":37602,"ELEMENT_SET_NO":999,"REV_AT_EPOCH":5509,"BSTAR":0,"MEAN_MOTION_DOT":0,"MEAN_MOTION_DDOT":0},{"OBJECT_NAME":"GSAT-8","OBJECT_ID":"2011-022A","EPOCH":"2026-04-04T04:29:27.155904","MEAN_MOTION":1.00271641,"ECCENTRICITY":0.00057279,"INCLINATION":1.9401,"RA_OF_ASC_NODE":82.7126,"ARG_OF_PERICENTER":224.321,"MEAN_ANOMALY":7.8885,"EPHEMERIS_TYPE":0,"CLASSIFICATION_TYPE":"U","NORAD_CAT_ID":37605,"ELEMENT_SET_NO":999,"REV_AT_EPOCH":5247,"BSTAR":0,"MEAN_MOTION_DOT":8.5e-7,"MEAN_MOTION_DDOT":0},{"OBJECT_NAME":"ST-2","OBJECT_ID":"2011-022B","EPOCH":"2026-04-04T03:21:38.768256","MEAN_MOTION":1.00273669,"ECCENTRICITY":0.00019164,"INCLINATION":0.0154,"RA_OF_ASC_NODE":223.5039,"ARG_OF_PERICENTER":158.1033,"MEAN_ANOMALY":309.2637,"EPHEMERIS_TYPE":0,"CLASSIFICATION_TYPE":"U","NORAD_CAT_ID":37606,"ELEMENT_SET_NO":999,"REV_AT_EPOCH":5453,"BSTAR":0,"MEAN_MOTION_DOT":-2.12e-6,"MEAN_MOTION_DDOT":0},{"OBJECT_NAME":"ZHONGXING-10","OBJECT_ID":"2011-026A","EPOCH":"2026-04-04T03:21:38.768256","MEAN_MOTION":1.00270895,"ECCENTRICITY":0.00027135,"INCLINATION":0.8561,"RA_OF_ASC_NODE":85.0344,"ARG_OF_PERICENTER":305.5304,"MEAN_ANOMALY":297.8679,"EPHEMERIS_TYPE":0,"CLASSIFICATION_TYPE":"U","NORAD_CAT_ID":37677,"ELEMENT_SET_NO":999,"REV_AT_EPOCH":5425,"BSTAR":0,"MEAN_MOTION_DOT":-1.89e-6,"MEAN_MOTION_DDOT":0},{"OBJECT_NAME":"SES-3","OBJECT_ID":"2011-035A","EPOCH":"2026-04-04T12:17:45.960000","MEAN_MOTION":1.00271518,"ECCENTRICITY":0.0003458,"INCLINATION":1.1362,"RA_OF_ASC_NODE":83.8506,"ARG_OF_PERICENTER":295.8621,"MEAN_ANOMALY":254.5472,"EPHEMERIS_TYPE":0,"CLASSIFICATION_TYPE":"U","NORAD_CAT_ID":37748,"ELEMENT_SET_NO":999,"REV_AT_EPOCH":5385,"BSTAR":0,"MEAN_MOTION_DOT":-1.01e-6,"MEAN_MOTION_DDOT":0},{"OBJECT_NAME":"KAZSAT-2","OBJECT_ID":"2011-035B","EPOCH":"2026-04-04T05:17:38.867136","MEAN_MOTION":1.00270853,"ECCENTRICITY":0.00012774,"INCLINATION":0.0396,"RA_OF_ASC_NODE":327.0971,"ARG_OF_PERICENTER":117.4627,"MEAN_ANOMALY":273.8965,"EPHEMERIS_TYPE":0,"CLASSIFICATION_TYPE":"U","NORAD_CAT_ID":37749,"ELEMENT_SET_NO":999,"REV_AT_EPOCH":5265,"BSTAR":0,"MEAN_MOTION_DOT":-1.98e-6,"MEAN_MOTION_DDOT":0},{"OBJECT_NAME":"BEIDOU-2 IGSO-4","OBJECT_ID":"2011-038A","EPOCH":"2026-03-28T15:54:07.127136","MEAN_MOTION":1.00260433,"ECCENTRICITY":0.0156581,"INCLINATION":54.5871,"RA_OF_ASC_NODE":166.404,"ARG_OF_PERICENTER":231.4212,"MEAN_ANOMALY":120.2889,"EPHEMERIS_TYPE":0,"CLASSIFICATION_TYPE":"U","NORAD_CAT_ID":37763,"ELEMENT_SET_NO":999,"REV_AT_EPOCH":5383,"BSTAR":0,"MEAN_MOTION_DOT":-1.09e-6,"MEAN_MOTION_DDOT":0},{"OBJECT_NAME":"ASTRA 1N","OBJECT_ID":"2011-041A","EPOCH":"2026-04-04T02:09:38.651616","MEAN_MOTION":1.00269556,"ECCENTRICITY":0.00050447,"INCLINATION":0.0874,"RA_OF_ASC_NODE":41.2005,"ARG_OF_PERICENTER":359.6758,"MEAN_ANOMALY":203.1299,"EPHEMERIS_TYPE":0,"CLASSIFICATION_TYPE":"U","NORAD_CAT_ID":37775,"ELEMENT_SET_NO":999,"REV_AT_EPOCH":4378,"BSTAR":0,"MEAN_MOTION_DOT":1.19e-6,"MEAN_MOTION_DDOT":0},{"OBJECT_NAME":"BSAT-3C (JCSAT-110R)","OBJECT_ID":"2011-041B","EPOCH":"2026-04-03T23:37:10.190208","MEAN_MOTION":1.00283675,"ECCENTRICITY":3.629e-5,"INCLINATION":0.0464,"RA_OF_ASC_NODE":38.8948,"ARG_OF_PERICENTER":14.5663,"MEAN_ANOMALY":243.1013,"EPHEMERIS_TYPE":0,"CLASSIFICATION_TYPE":"U","NORAD_CAT_ID":37776,"ELEMENT_SET_NO":999,"REV_AT_EPOCH":4972,"BSTAR":0,"MEAN_MOTION_DOT":-3.53e-6,"MEAN_MOTION_DDOT":0},{"OBJECT_NAME":"PAKSAT-1R","OBJECT_ID":"2011-042A","EPOCH":"2026-04-04T04:31:02.667648","MEAN_MOTION":1.00278412,"ECCENTRICITY":0.0003104,"INCLINATION":0.4971,"RA_OF_ASC_NODE":85.1589,"ARG_OF_PERICENTER":321.6266,"MEAN_ANOMALY":251.453,"EPHEMERIS_TYPE":0,"CLASSIFICATION_TYPE":"U","NORAD_CAT_ID":37779,"ELEMENT_SET_NO":999,"REV_AT_EPOCH":5373,"BSTAR":0,"MEAN_MOTION_DOT":1.53e-6,"MEAN_MOTION_DDOT":0},{"OBJECT_NAME":"SES-2","OBJECT_ID":"2011-049A","EPOCH":"2026-04-04T04:18:38.607264","MEAN_MOTION":1.00272411,"ECCENTRICITY":0.00029484,"INCLINATION":0.0544,"RA_OF_ASC_NODE":65.7512,"ARG_OF_PERICENTER":309.8626,"MEAN_ANOMALY":154.5451,"EPHEMERIS_TYPE":0,"CLASSIFICATION_TYPE":"U","NORAD_CAT_ID":37809,"ELEMENT_SET_NO":999,"REV_AT_EPOCH":5322,"BSTAR":0,"MEAN_MOTION_DOT":-1.97e-6,"MEAN_MOTION_DDOT":0},{"OBJECT_NAME":"ARABSAT-5C","OBJECT_ID":"2011-049B","EPOCH":"2026-04-04T04:39:38.850624","MEAN_MOTION":1.00270748,"ECCENTRICITY":0.00027731,"INCLINATION":0.0559,"RA_OF_ASC_NODE":22.1436,"ARG_OF_PERICENTER":354.279,"MEAN_ANOMALY":265.9839,"EPHEMERIS_TYPE":0,"CLASSIFICATION_TYPE":"U","NORAD_CAT_ID":37810,"ELEMENT_SET_NO":999,"REV_AT_EPOCH":5329,"BSTAR":0,"MEAN_MOTION_DOT":1.22e-6,"MEAN_MOTION_DDOT":0},{"OBJECT_NAME":"EUTELSAT 7 WEST A","OBJECT_ID":"2011-051A","EPOCH":"2026-04-04T04:11:43.855296","MEAN_MOTION":1.00272662,"ECCENTRICITY":0.00016201,"INCLINATION":0.0774,"RA_OF_ASC_NODE":29.8657,"ARG_OF_PERICENTER":90.212,"MEAN_ANOMALY":128.0056,"EPHEMERIS_TYPE":0,"CLASSIFICATION_TYPE":"U","NORAD_CAT_ID":37816,"ELEMENT_SET_NO":999,"REV_AT_EPOCH":5313,"BSTAR":0,"MEAN_MOTION_DOT":-6.1e-7,"MEAN_MOTION_DDOT":0},{"OBJECT_NAME":"QUETZSAT 1","OBJECT_ID":"2011-054A","EPOCH":"2026-04-04T05:34:28.419168","MEAN_MOTION":1.00272088,"ECCENTRICITY":0.0002321,"INCLINATION":0.0494,"RA_OF_ASC_NODE":59.2742,"ARG_OF_PERICENTER":313.5282,"MEAN_ANOMALY":186.374,"EPHEMERIS_TYPE":0,"CLASSIFICATION_TYPE":"U","NORAD_CAT_ID":37826,"ELEMENT_SET_NO":999,"REV_AT_EPOCH":4913,"BSTAR":0,"MEAN_MOTION_DOT":-2.42e-6,"MEAN_MOTION_DDOT":0}]
