INTELSAT 28 (IS-28)     
1 37392U 11016A   26094.22197449 -.00000225  00000+0  00000+0 0  9990
2 37392   1.6152  83.5187 0004521 296.7697 220.4564  1.00272088 52548
YAHSAT 1A               
1 37393U 11016B   26094.11535957  .00000101  00000+0  00000+0 0  9991
2 37393   0.0060 216.4117 0002880 170.3857 259.6518  1.00269865 41664
SBIRS GEO-1 (USA 230)   
1 37481U 11019A   26094.24350380  .00000101  00000+0  00000+0 0  9991
2 37481   4.3745  53.1086 0002232 317.2507 321.6648  1.00272357 54652
TELSTAR 14R             
1 37602U 11021A   26094.23504671  .00000000  00000+0  00000+0 0  9990
2 37602   0.0189 217.3527 0002441 163.4455 193.3660  1.00268319 55091
GSAT-8                  
1 37605U 11022A   26094.18711986  .00000085  00000+0  00000+0 0  9990
2 37605   1.9401  82.7126 0005727 224.3210   7.8885  1.00271641 52475
ST-2                    
1 37606U 11022B   26094.14003204 -.00000212  00000+0  00000+0 0  9997
2 37606   0.0154 223.5039 0001916 158.1033 309.2637  1.00273669 54537
ZHONGXING-10            
1 37677U 11026A   26094.14003204 -.00000189  00000+0  00000+0 0  9992
2 37677   0.8561  85.0344 0002713 305.5304 297.8679  1.00270895 54255
SES-3                   
1 37748U 11035A   26094.51233750 -.00000101  00000+0  00000+0 0  9997
2 37748   1.1362  83.8506 0003458 295.8621 254.5472  1.00271518 53852
KAZSAT-2                
1 37749U 11035B   26094.22058874 -.00000198  00000+0  00000+0 0  9994
2 37749   0.0396 327.0971 0001277 117.4627 273.8965  1.00270853 52658
BEIDOU-2 IGSO-4         
1 37763U 11038A   26087.66258249 -.00000109  00000+0  00000+0 0  9993
2 37763  54.5871 166.4040 0156581 231.4212 120.2889  1.00260433 53838
ASTRA 1N                
1 37775U 11041A   26094.09003069  .00000119  00000+0  00000+0 0  9993
2 37775   0.0874  41.2005 0005044 359.6758 203.1299  1.00269556 43780
BSAT-3C (JCSAT-110R)    
1 37776U 11041B   26093.98414572 -.00000353  00000+0  00000+0 0  9997
2 37776   0.0464  38.8948 0000362  14.5663 243.1013  1.00283675 49720
PAKSAT-1R               
1 37779U 11042A   26094.18822532  .00000153  00000+0  00000+0 0  9990
2 37779   0.4971  85.1589 0003104 321.6266 251.4530  1.00278412 53739
SES-2                   
1 37809U 11049A   26094.17961351 -.00000197  00000+0  00000+0 0  9992
2 37809   0.0544  65.7512 0002948 309.8626 154.5451  1.00272411 53220
ARABSAT-5C              
1 37810U 11049B   26094.19419966  .00000122  00000+0  00000+0 0  9993
2 37810   0.0559  22.1436 0002773 354.2790 265.9839  1.00270748 53297
EUTELSAT 7 WEST A       
1 37816U 11051A   26094.17481314 -.00000061  00000+0  00000+0 0  9999
2 37816   0.0774  29.8657 0001620  90.2120 128.0056  1.00272662 53135
QUETZSAT 1              
1 37826U 11054A   26094.23227337 -.00000242  00000+0  00000+0 0  9994
2 37826   0.0494  59.2742 0002321 313.5282 186.3740  1.00272088 49130
